GLOBALSTAR M068 [-]     
1 32266U 07048D   24053.95031844 -.00000056  00000+0  26420-3 0  9994
2 32266  51.9908 326.1272 0001037 120.7084 320.1515 12.62780425757170
GLOBALSTAR M079 [+]     
1 37188U 10054A   24053.61853491 -.00000111  00000+0 -40472-4 0  9993
2 37188  52.0029 162.7142 0000605  98.6924   4.9534 12.62266713615765
GLOBALSTAR M074 [+]     
1 37189U 10054B   24053.54594928 -.00000108  00000+0 -24062-4 0  9996
2 37189  52.0006 162.3326 0000848 111.7653 261.4737 12.62265459616364
GLOBALSTAR M076 [+]     
1 37190U 10054C   24053.59294019 -.00000118  00000+0 -81105-4 0  9993
2 37190  52.0019 162.3187 0000997  79.1692  26.6443 12.62274788616089
GLOBALSTAR M077 [+]     
1 37191U 10054D   24053.91088183 -.00000087  00000+0  94618-4 0  9990
2 37191  52.0066 118.0689 0000691 116.5582  54.8490 12.62269818616490
GLOBALSTAR M075 [+]     
1 37192U 10054E   24053.66497247 -.00000108  00000+0 -24140-4 0  9996
2 37192  51.9927 204.6232 0000759  95.7849 277.6240 12.62270938615324
GLOBALSTAR M073 [+]     
1 37193U 10054F   24053.42714586 -.00000079  00000+0  13591-3 0  9992
2 37193  52.0054 118.7972 0000617 108.5844 265.6095 12.62261955617129
GLOBALSTAR M083 [+]     
1 37739U 11033A   24053.92919669 -.00000096  00000+0  44021-4 0  9992
2 37739  51.9860  66.6561 0000263 148.2267 287.9916 12.62265961586204
GLOBALSTAR M088 [+]     
1 37740U 11033B   24053.52761562 -.00000081  00000+0  12447-3 0  9997
2 37740  51.9760 333.7771 0000364  51.3184 119.7164 12.62265021581692
GLOBALSTAR M091 [+]     
1 37741U 11033C   24053.83711219 -.00000067  00000+0  20634-3 0  9997
2 37741  51.9999 295.5316 0000463  59.7001  18.2293 12.62271614582521
GLOBALSTAR M085 [+]     
1 37742U 11033D   24053.80979895 -.00000091  00000+0  73008-4 0  9992
2 37742  51.9841 247.0776 0000648  85.3946 287.7895 12.62268099583039
GLOBALSTAR M081 [+]     
1 37743U 11033E   24053.85583351 -.00000080  00000+0  13501-3 0  9995
2 37743  51.9933 249.4274 0000692  66.9891  35.9508 12.62270082583189
GLOBALSTAR M089 [+]     
1 37744U 11033F   24053.57296642 -.00000118  00000+0 -76799-4 0  9991
2 37744  51.9910 204.6056 0001082  83.2396 353.1789 12.62254648583997
GLOBALSTAR M084 [+]     
1 38040U 11080A   24053.76543852 -.00000082  00000+0  12105-3 0  9991
2 38040  52.0010  71.0521 0000640  93.6337  77.7876 12.62271240561991
GLOBALSTAR M080 [+]     
1 38041U 11080B   24054.19314774 -.00000085  00000+0  10592-3 0  9990
2 38041  52.0061  71.1890 0000678  76.8356 358.4349 12.62269318562317
GLOBALSTAR M082 [+]     
1 38042U 11080C   24054.12830047 -.00000105  00000+0 -54611-5 0  9996
2 38042  52.0097  26.7808 0000431 183.5103 257.3622 12.62266082563042
GLOBALSTAR M092 [+]     
1 38043U 11080D   24054.16752773 -.00000087  00000+0  96158-4 0  9999
2 38043  52.0078 117.0160 0000825 117.5070 260.5633 12.62276693561544
GLOBALSTAR M090 [+]     
1 38044U 11080E   24053.62026382 -.00000102  00000+0  10218-4 0  9991
2 38044  51.9909  22.7539 0000172 127.5663  44.5444 12.62266315562925
GLOBALSTAR M086 [+]     
1 38045U 11080F   24054.10176514 -.00000099  00000+0  25229-4 0  9992
2 38045  51.9921  21.8026 0000940 355.9257  84.5831 12.62267457563035
GLOBALSTAR M097 [+]     
1 39072U 13005A   24053.87283175 -.00000067  00000+0  20564-3 0  9998
2 39072  52.0048 296.5619 0000522  59.5833 300.5085 12.62260914510158
GLOBALSTAR M093 [+]     
1 39073U 13005B   24054.08385125 -.00000066  00000+0  21183-3 0  9998
2 39073  51.9808 289.9904 0000469  50.5757 309.5151 12.62261423510250
GLOBALSTAR M094 [+]     
1 39074U 13005C   24053.68799695 -.00000118  00000+0 -80677-4 0  9998
2 39074  51.9936 205.0941 0000676  94.7277 265.3667 12.62263167511697
GLOBALSTAR M096 [+]     
1 39075U 13005D   24053.85964643 -.00000081  00000+0  12727-3 0  9993
2 39075  52.0050 252.7137 0000604  72.9703 287.1230 12.62273019510634
GLOBALSTAR M078 [+]     
1 39076U 13005E   24054.15030792 -.00000039  00000+0  36380-3 0  9991
2 39076  51.9901 336.9937 0000833 164.9649 195.1242 12.62262306509508
GLOBALSTAR M095 [+]     
1 39077U 13005F   24053.93868342 -.00000080  00000+0  13197-3 0  9994
2 39077  51.9826 335.0700 0000168 177.4585 182.6283 12.62263458509125
GLOBALSTAR M087 [+]     
1 52888U 22064A   24053.81115969 -.00000087  00000+0  78431-4 0  9991
2 52888  51.9736 250.6910 0010306  73.1350 287.0680 13.37565992 82085
